QIANFAN-49              
1 62250U 24232P   25272.84983468  .00000153  00000+0  21804-3 0  9992
2 62250  88.9997  48.6783 0015412  54.0399 306.2179 13.50974377 57866
QIANFAN-50              
1 62251U 24232Q   25270.87479844  .00000208  00000+0  30400-3 0  9995
2 62251  88.9997  48.8819 0017245  60.0492 300.2369 13.50969182 57623
QIANFAN-51              
1 62252U 24232R   25272.85804620  .00000166  00000+0  23770-3 0  9995
2 62252  88.9996  48.6799 0014678  58.9392 301.3198 13.50971921 57884
QIANFAN-52              
1 62253U 24232S   25272.81277253  .00000159  00000+0  22782-3 0  9992
2 62253  88.9992  48.5609 0016505  51.3053 308.9571 13.50974399 57961
QIANFAN-53              
1 62254U 24232T   25272.86630061  .00000148  00000+0  21061-3 0  9995
2 62254  89.0000  48.6545 0015412  52.5240 307.7310 13.50970222 57937
QIANFAN-54              
1 62255U 24232U   25272.83333543  .00000159  00000+0  22811-3 0  9994
2 62255  88.9991  48.3427 0003926  93.9793 266.1807 13.50972346 89438
QIANFAN-55              
1 62785U 25016A   25272.85928608  .00000051  00000+0  60908-4 0  9998
2 62785  88.9753 110.8433 0016547 196.7117 163.3491 13.50965705 37216
QIANFAN-56              
1 62786U 25016B   25272.80178421  .00000077  00000+0  10080-3 0  9997
2 62786  88.9726 110.7058 0015148 198.9504 161.1085 13.50973823 37258
